<?xml version="1.0" encoding="UTF-8"?>
<kml xmlns="http://www.opengis.net/kml/2.2" xmlns:xsi="http://www.w3.org/2001/XMLSchema-instance" xsi:schemaLocation="http://www.opengis.net/kml/2.2 http://schemas.opengis.net/kml/2.2.0/ogckml22.xsd">
  <Document>
    <name>Aboretum</name>
    <description><![CDATA[Generated by AllTrails https://www.alltrails.com/]]></description>
    <Style id="gpsiesStyle">
      <IconStyle>
        <scale>0.5</scale>
        <Icon>
          <href>https://www.gpsies.com/images/milestone.png</href>
        </Icon>
      </IconStyle>
      <LineStyle>
        <colorMode>random</colorMode>
        <width>5</width>
      </LineStyle>
    </Style>
    <Style id="flag_n">
      <IconStyle>
        <scale>0.8</scale>
        <Icon>
          <href>https://www.gpsies.com/images/flag.png</href>
        </Icon>
      </IconStyle>
      <LabelStyle>
        <scale>0</scale>
      </LabelStyle>
      <BalloonStyle>
        <text>$[description]</text>
      </BalloonStyle>
    </Style>
    <Style id="flag_h">
      <IconStyle>
        <scale>0.8</scale>
        <Icon>
          <href>https://www.gpsies.com/images/flag.png</href>
        </Icon>
      </IconStyle>
      <LabelStyle>
        <scale>1</scale>
      </LabelStyle>
      <BalloonStyle>
        <text>$[description]</text>
      </BalloonStyle>
    </Style>
    <StyleMap id="flag">
      <Pair>
        <key>normal</key>
        <styleUrl>#flag_n</styleUrl>
      </Pair>
      <Pair>
        <key>highlight</key>
        <styleUrl>#flag_h</styleUrl>
      </Pair>
    </StyleMap>
    <Placemark>
      <name>Aboretum</name>
      <visibility>1</visibility>
      <open>1</open>
      <Snippet maxLines="0" />
      <description><![CDATA[Generated by AllTrails https://www.alltrails.com/]]></description>
      <styleUrl>#gpsiesStyle</styleUrl>
      <MultiGeometry>
        <LineString>
          <extrude>true</extrude>
          <tessellate>true</tessellate>
          <coordinates>-73.9432000,45.43176000,48.000000
-73.9432200,45.43179000,48.000000
-73.9432500,45.43181000,48.000000
-73.9432800,45.43183000,47.000000
-73.9433200,45.43187000,47.000000
-73.9433500,45.43189000,47.000000
-73.9434000,45.43191000,47.000000
-73.9434400,45.43192000,47.000000
-73.9434800,45.43193000,47.000000
-73.9435300,45.43194000,47.000000
-73.9435700,45.43194000,47.000000
-73.9436200,45.43195000,46.000000
-73.9436600,45.43196000,46.000000
-73.9437100,45.43197000,46.000000
-73.9437600,45.43197000,46.000000
-73.9438000,45.43198000,46.000000
-73.9438500,45.43198000,46.000000
-73.9439000,45.43199000,46.000000
-73.9439500,45.43200000,47.000000
-73.9440000,45.43201000,47.000000
-73.9440400,45.43202000,47.000000
-73.9440700,45.43204000,47.000000
-73.9441000,45.43206000,47.000000
-73.9441300,45.43209000,47.000000
-73.9441600,45.43211000,47.000000
-73.9441900,45.43214000,47.000000
-73.9442200,45.43216000,47.000000
-73.9442500,45.43220000,47.000000
-73.9442800,45.43222000,47.000000
-73.9443200,45.43224000,47.000000
-73.9443600,45.43226000,47.000000
-73.9444000,45.43229000,48.000000
-73.9444500,45.43233000,48.000000
-73.9444900,45.43235000,48.000000
-73.9445200,45.43237000,48.000000
-73.9445500,45.43240000,48.000000
-73.9445800,45.43242000,48.000000
-73.9446100,45.43244000,48.000000
-73.9446300,45.43247000,48.000000
-73.9446500,45.43250000,48.000000
-73.9446700,45.43254000,49.000000
-73.9446900,45.43257000,49.000000
-73.9447000,45.43260000,49.000000
-73.9447200,45.43263000,49.000000
-73.9447300,45.43266000,49.000000
-73.9447400,45.43269000,49.000000
-73.9447600,45.43272000,49.000000
-73.9447900,45.43275000,49.000000
-73.9448100,45.43277000,49.000000
-73.9448400,45.43280000,49.000000
-73.9448900,45.43284000,49.000000</coordinates>
        </LineString>
        <LineString>
          <extrude>true</extrude>
          <tessellate>true</tessellate>
          <coordinates>-73.9462800,45.43549000,39.000000
-73.9463600,45.43556000,38.000000
-73.9464100,45.43563000,37.000000
-73.9464800,45.43574000,36.000000
-73.9466800,45.43604000,34.000000
-73.9467900,45.43619000,34.000000
-73.9468500,45.43628000,35.000000
-73.9469000,45.43633000,35.000000
-73.9469400,45.43637000,35.000000
-73.9470000,45.43641000,36.000000
-73.9470800,45.43645000,37.000000
-73.9472200,45.43648000,38.000000
-73.9474300,45.43655000,39.000000
-73.9476300,45.43662000,39.000000
-73.9479000,45.43673000,40.000000
-73.9479500,45.43676000,41.000000</coordinates>
        </LineString>
        <LineString>
          <extrude>true</extrude>
          <tessellate>true</tessellate>
          <coordinates>-73.9495600,45.43743000,41.000000
-73.9495900,45.43742000,41.000000
-73.9496200,45.43741000,41.000000
-73.9496700,45.43738000,40.000000
-73.9497300,45.43732000,40.000000
-73.9497900,45.43726000,39.000000
-73.9498600,45.43716000,38.000000
-73.9499900,45.43696000,38.000000
-73.9500600,45.43687000,37.000000
-73.9501500,45.43673000,37.000000
-73.9502600,45.43657000,37.000000
-73.9506300,45.43606000,42.000000
-73.9506800,45.43599000,43.000000
-73.9507800,45.43586000,46.000000
-73.9507700,45.43586000,46.000000</coordinates>
        </LineString>
        <LineString>
          <extrude>true</extrude>
          <tessellate>true</tessellate>
          <coordinates>-73.9497100,45.43752000,40.000000
-73.9497000,45.43753000,40.000000
-73.9497400,45.43754000,39.000000
-73.9499800,45.43764000,37.000000
-73.9503100,45.43780000,35.000000
-73.9506800,45.43797000,34.000000
-73.9511500,45.43818000,33.000000
-73.9512500,45.43822000,33.000000
-73.9517000,45.43842000,33.000000
-73.9518400,45.43848000,33.000000</coordinates>
        </LineString>
        <LineString>
          <extrude>true</extrude>
          <tessellate>true</tessellate>
          <coordinates>-73.9462700,45.43548000,39.000000
-73.9468400,45.43531000,41.000000</coordinates>
        </LineString>
        <LineString>
          <extrude>true</extrude>
          <tessellate>true</tessellate>
          <coordinates>-73.9465700,45.43586000,34.000000
-73.9460200,45.43601000,31.000000</coordinates>
        </LineString>
        <LineString>
          <extrude>true</extrude>
          <tessellate>true</tessellate>
          <coordinates>-73.9468100,45.43623000,34.000000
-73.9473800,45.43605000,38.000000</coordinates>
        </LineString>
        <LineString>
          <extrude>true</extrude>
          <tessellate>true</tessellate>
          <coordinates>-73.9470400,45.43689000,34.000000
-73.9473200,45.43652000,39.000000</coordinates>
        </LineString>
        <LineString>
          <extrude>true</extrude>
          <tessellate>true</tessellate>
          <coordinates>-73.9501700,45.43773000,36.000000
-73.9505100,45.43738000,33.000000</coordinates>
        </LineString>
        <LineString>
          <extrude>true</extrude>
          <tessellate>true</tessellate>
          <coordinates>-73.9503800,45.43836000,30.000000
-73.9507200,45.43799000,34.000000</coordinates>
        </LineString>
        <LineString>
          <extrude>true</extrude>
          <tessellate>true</tessellate>
          <coordinates>-73.9481300,45.43636000,41.000000
-73.9479200,45.43674000,41.000000</coordinates>
        </LineString>
        <LineString>
          <extrude>true</extrude>
          <tessellate>true</tessellate>
          <coordinates>-73.9515600,45.43786000,32.000000
-73.9512400,45.43822000,33.000000</coordinates>
        </LineString>
        <LineString>
          <extrude>true</extrude>
          <tessellate>true</tessellate>
          <coordinates>-73.9514800,45.43879000,33.000000
-73.9517900,45.43845000,33.000000
-73.9517800,45.43845000,33.000000</coordinates>
        </LineString>
        <LineString>
          <extrude>true</extrude>
          <tessellate>true</tessellate>
          <coordinates>-73.9495600,45.43742000,41.000000
-73.9491500,45.43714000,46.000000</coordinates>
        </LineString>
        <LineString>
          <extrude>true</extrude>
          <tessellate>true</tessellate>
          <coordinates>-73.9504900,45.43728000,32.000000
-73.9499200,45.43707000,38.000000</coordinates>
        </LineString>
        <LineString>
          <extrude>true</extrude>
          <tessellate>true</tessellate>
          <coordinates>-73.9496300,45.43647000,43.000000
-73.9501900,45.43668000,37.000000</coordinates>
        </LineString>
        <LineString>
          <extrude>true</extrude>
          <tessellate>true</tessellate>
          <coordinates>-73.9510400,45.43643000,31.000000
-73.9504800,45.43626000,39.000000</coordinates>
        </LineString>
        <LineString>
          <extrude>true</extrude>
          <tessellate>true</tessellate>
          <coordinates>-73.9434700,45.43231000,46.000000
-73.9438000,45.43198000,46.000000</coordinates>
        </LineString>
        <LineString>
          <extrude>true</extrude>
          <tessellate>true</tessellate>
          <coordinates>-73.9446700,45.43188000,49.000000
-73.9442800,45.43220000,47.000000</coordinates>
        </LineString>
        <LineString>
          <extrude>true</extrude>
          <tessellate>true</tessellate>
          <coordinates>-73.9441500,45.43275000,48.000000
-73.9446600,45.43252000,49.000000</coordinates>
        </LineString>
        <LineString>
          <extrude>true</extrude>
          <tessellate>true</tessellate>
          <coordinates>-73.9449000,45.43285000,49.000000
-73.9454000,45.43261000,50.000000</coordinates>
        </LineString>
      </MultiGeometry>
    </Placemark>
  </Document>
</kml>

