<?xml version="1.0" encoding="UTF-8"?>
<kml xmlns="http://www.opengis.net/kml/2.2" xmlns:xsi="http://www.w3.org/2001/XMLSchema-instance" xsi:schemaLocation="http://www.opengis.net/kml/2.2 http://schemas.opengis.net/kml/2.2.0/ogckml22.xsd">
  <Document>
    <name>Bois-de-Liesse</name>
    <description><![CDATA[Generated by AllTrails https://www.alltrails.com/]]></description>
    <Style id="gpsiesStyle">
      <IconStyle>
        <scale>0.5</scale>
        <Icon>
          <href>https://www.gpsies.com/images/milestone.png</href>
        </Icon>
      </IconStyle>
      <LineStyle>
        <colorMode>random</colorMode>
        <width>5</width>
      </LineStyle>
    </Style>
    <Style id="flag_n">
      <IconStyle>
        <scale>0.8</scale>
        <Icon>
          <href>https://www.gpsies.com/images/flag.png</href>
        </Icon>
      </IconStyle>
      <LabelStyle>
        <scale>0</scale>
      </LabelStyle>
      <BalloonStyle>
        <text>$[description]</text>
      </BalloonStyle>
    </Style>
    <Style id="flag_h">
      <IconStyle>
        <scale>0.8</scale>
        <Icon>
          <href>https://www.gpsies.com/images/flag.png</href>
        </Icon>
      </IconStyle>
      <LabelStyle>
        <scale>1</scale>
      </LabelStyle>
      <BalloonStyle>
        <text>$[description]</text>
      </BalloonStyle>
    </Style>
    <StyleMap id="flag">
      <Pair>
        <key>normal</key>
        <styleUrl>#flag_n</styleUrl>
      </Pair>
      <Pair>
        <key>highlight</key>
        <styleUrl>#flag_h</styleUrl>
      </Pair>
    </StyleMap>
    <Placemark>
      <name>Bois-de-Liesse</name>
      <visibility>1</visibility>
      <open>1</open>
      <Snippet maxLines="0" />
      <description><![CDATA[Generated by AllTrails https://www.alltrails.com/]]></description>
      <styleUrl>#gpsiesStyle</styleUrl>
      <MultiGeometry>
        <LineString>
          <extrude>true</extrude>
          <tessellate>true</tessellate>
          <coordinates>-73.7699500,45.50086000,22.000000
-73.7701900,45.50083000,22.000000
-73.7704400,45.50077000,23.000000
-73.7709100,45.50061000,24.000000
-73.7713200,45.50046000,24.000000
-73.7716000,45.50041000,26.000000
-73.7719000,45.50038000,27.000000
-73.7721300,45.50035000,29.000000
-73.7723700,45.50029000,30.000000</coordinates>
        </LineString>
        <LineString>
          <extrude>true</extrude>
          <tessellate>true</tessellate>
          <coordinates>-73.7663600,45.49928000,29.000000
-73.7662100,45.49933000,29.000000
-73.7659800,45.49938000,29.000000
-73.7658900,45.49941000,28.000000
-73.7656200,45.49957000,29.000000
-73.7654700,45.49964000,29.000000
-73.7652300,45.49980000,29.000000
-73.7650600,45.49987000,28.000000
-73.7648000,45.50002000,27.000000
-73.7646800,45.50006000,26.000000
-73.7645800,45.50006000,26.000000
-73.7645100,45.50003000,26.000000
-73.7644600,45.50003000,26.000000
-73.7643900,45.50006000,26.000000
-73.7642100,45.50015000,26.000000</coordinates>
        </LineString>
        <LineString>
          <extrude>true</extrude>
          <tessellate>true</tessellate>
          <coordinates>-73.7680800,45.49964000,25.000000
-73.7681100,45.49965000,25.000000
-73.7681300,45.49964000,25.000000
-73.7682000,45.49960000,25.000000
-73.7682100,45.49960000,25.000000
-73.7685600,45.49985000,23.000000
-73.7685800,45.49987000,23.000000
-73.7686100,45.49992000,23.000000
-73.7686400,45.50000000,23.000000
-73.7689400,45.50022000,23.000000
-73.7691600,45.50038000,22.000000
-73.7692900,45.50047000,21.000000
-73.7694100,45.50056000,21.000000
-73.7698300,45.50087000,22.000000</coordinates>
        </LineString>
        <LineString>
          <extrude>true</extrude>
          <tessellate>true</tessellate>
          <coordinates>-73.7679100,45.50208000,23.000000
-73.7679300,45.50208000,23.000000
-73.7675800,45.50197000,24.000000
-73.7674500,45.50196000,24.000000
-73.7673800,45.50198000,24.000000
-73.7671400,45.50210000,24.000000
-73.7667900,45.50217000,25.000000
-73.7666500,45.50221000,26.000000
-73.7665600,45.50225000,26.000000
-73.7664100,45.50239000,27.000000
-73.7663100,45.50242000,27.000000
-73.7658400,45.50246000,25.000000
-73.7656500,45.50251000,25.000000</coordinates>
        </LineString>
        <LineString>
          <extrude>true</extrude>
          <tessellate>true</tessellate>
          <coordinates>-73.7720000,45.50083000,27.000000
-73.7717900,45.50040000,27.000000</coordinates>
        </LineString>
        <LineString>
          <extrude>true</extrude>
          <tessellate>true</tessellate>
          <coordinates>-73.7709200,45.50010000,23.000000
-73.7711600,45.50052000,24.000000</coordinates>
        </LineString>
        <LineString>
          <extrude>true</extrude>
          <tessellate>true</tessellate>
          <coordinates>-73.7707800,45.50115000,23.000000
-73.7706000,45.50073000,23.000000</coordinates>
        </LineString>
        <LineString>
          <extrude>true</extrude>
          <tessellate>true</tessellate>
          <coordinates>-73.7699700,45.50089000,22.000000
-73.7697900,45.50044000,20.000000</coordinates>
        </LineString>
        <LineString>
          <extrude>true</extrude>
          <tessellate>true</tessellate>
          <coordinates>-73.7698200,45.50092000,22.000000
-73.7693400,45.50123000,25.000000</coordinates>
        </LineString>
        <LineString>
          <extrude>true</extrude>
          <tessellate>true</tessellate>
          <coordinates>-73.7699300,45.50029000,20.000000
-73.7694100,45.50058000,21.000000</coordinates>
        </LineString>
        <LineString>
          <extrude>true</extrude>
          <tessellate>true</tessellate>
          <coordinates>-73.7683800,45.50047000,23.000000
-73.7688500,45.50016000,23.000000</coordinates>
        </LineString>
        <LineString>
          <extrude>true</extrude>
          <tessellate>true</tessellate>
          <coordinates>-73.7690400,45.49953000,22.000000
-73.7685200,45.49982000,23.000000</coordinates>
        </LineString>
        <LineString>
          <extrude>true</extrude>
          <tessellate>true</tessellate>
          <coordinates>-73.7675600,45.50241000,23.000000
-73.7673400,45.50200000,24.000000</coordinates>
        </LineString>
        <LineString>
          <extrude>true</extrude>
          <tessellate>true</tessellate>
          <coordinates>-73.7663400,45.50179000,26.000000
-73.7667200,45.50219000,25.000000</coordinates>
        </LineString>
        <LineString>
          <extrude>true</extrude>
          <tessellate>true</tessellate>
          <coordinates>-73.7666600,45.50282000,23.000000
-73.7663000,45.50242000,27.000000</coordinates>
        </LineString>
        <LineString>
          <extrude>true</extrude>
          <tessellate>true</tessellate>
          <coordinates>-73.7656700,45.50251000,25.000000
-73.7653300,45.50213000,25.000000</coordinates>
        </LineString>
        <LineString>
          <extrude>true</extrude>
          <tessellate>true</tessellate>
          <coordinates>-73.7653500,45.49910000,26.000000
-73.7658600,45.49943000,28.000000</coordinates>
        </LineString>
        <LineString>
          <extrude>true</extrude>
          <tessellate>true</tessellate>
          <coordinates>-73.7658300,45.50004000,27.000000
-73.7653800,45.49970000,29.000000</coordinates>
        </LineString>
        <LineString>
          <extrude>true</extrude>
          <tessellate>true</tessellate>
          <coordinates>-73.7644100,45.49962000,27.000000
-73.7649000,45.49997000,27.000000</coordinates>
        </LineString>
        <LineString>
          <extrude>true</extrude>
          <tessellate>true</tessellate>
          <coordinates>-73.7647100,45.50042000,26.000000
-73.7643300,45.50009000,26.000000</coordinates>
        </LineString>
      </MultiGeometry>
    </Placemark>
  </Document>
</kml>

