<?xml version="1.0" encoding="UTF-8"?>
<kml xmlns="http://www.opengis.net/kml/2.2" xmlns:xsi="http://www.w3.org/2001/XMLSchema-instance" xsi:schemaLocation="http://www.opengis.net/kml/2.2 http://schemas.opengis.net/kml/2.2.0/ogckml22.xsd">
  <Document>
    <name>MBO</name>
    <description><![CDATA[Generated by AllTrails https://www.alltrails.com/]]></description>
    <Style id="gpsiesStyle">
      <IconStyle>
        <scale>0.5</scale>
        <Icon>
          <href>https://www.gpsies.com/images/milestone.png</href>
        </Icon>
      </IconStyle>
      <LineStyle>
        <colorMode>random</colorMode>
        <width>5</width>
      </LineStyle>
    </Style>
    <Style id="flag_n">
      <IconStyle>
        <scale>0.8</scale>
        <Icon>
          <href>https://www.gpsies.com/images/flag.png</href>
        </Icon>
      </IconStyle>
      <LabelStyle>
        <scale>0</scale>
      </LabelStyle>
      <BalloonStyle>
        <text>$[description]</text>
      </BalloonStyle>
    </Style>
    <Style id="flag_h">
      <IconStyle>
        <scale>0.8</scale>
        <Icon>
          <href>https://www.gpsies.com/images/flag.png</href>
        </Icon>
      </IconStyle>
      <LabelStyle>
        <scale>1</scale>
      </LabelStyle>
      <BalloonStyle>
        <text>$[description]</text>
      </BalloonStyle>
    </Style>
    <StyleMap id="flag">
      <Pair>
        <key>normal</key>
        <styleUrl>#flag_n</styleUrl>
      </Pair>
      <Pair>
        <key>highlight</key>
        <styleUrl>#flag_h</styleUrl>
      </Pair>
    </StyleMap>
    <Placemark>
      <name>MBO</name>
      <visibility>1</visibility>
      <open>1</open>
      <Snippet maxLines="0" />
      <description><![CDATA[Generated by AllTrails https://www.alltrails.com/]]></description>
      <styleUrl>#gpsiesStyle</styleUrl>
      <MultiGeometry>
        <LineString>
          <extrude>true</extrude>
          <tessellate>true</tessellate>
          <coordinates>-73.9378500,45.43025000,37.000000
-73.9378700,45.43024000,37.000000
-73.9377900,45.43014000,38.000000
-73.9376200,45.42991000,39.000000
-73.9374100,45.42959000,39.000000
-73.9372200,45.42930000,38.000000
-73.9371100,45.42912000,37.000000
-73.9369700,45.42890000,37.000000
-73.9368200,45.42868000,36.000000
-73.9367600,45.42859000,35.000000</coordinates>
        </LineString>
        <LineString>
          <extrude>true</extrude>
          <tessellate>true</tessellate>
          <coordinates>-73.9382100,45.43075000,36.000000
-73.9382500,45.43081000,36.000000
-73.9383600,45.43101000,35.000000
-73.9385100,45.43122000,35.000000
-73.9386700,45.43148000,35.000000
-73.9389700,45.43196000,35.000000
-73.9392500,45.43241000,36.000000
-73.9392600,45.43241000,36.000000</coordinates>
        </LineString>
        <LineString>
          <extrude>true</extrude>
          <tessellate>true</tessellate>
          <coordinates>-73.9389500,45.43055000,35.000000
-73.9390400,45.43052000,35.000000
-73.9391200,45.43049000,35.000000
-73.9391800,45.43047000,35.000000
-73.9392600,45.43042000,35.000000
-73.9393400,45.43038000,35.000000
-73.9394100,45.43034000,34.000000
-73.9394600,45.43031000,34.000000
-73.9394800,45.43030000,34.000000
-73.9395200,45.43030000,34.000000
-73.9395800,45.43030000,34.000000
-73.9396700,45.43030000,34.000000
-73.9397300,45.43029000,34.000000
-73.9397600,45.43028000,34.000000
-73.9398900,45.43024000,35.000000
-73.9399700,45.43020000,35.000000
-73.9400700,45.43015000,34.000000
-73.9402900,45.43004000,34.000000
-73.9405300,45.42991000,37.000000
-73.9405600,45.42989000,38.000000
-73.9405700,45.42987000,38.000000
-73.9405900,45.42985000,38.000000
-73.9405900,45.42983000,39.000000
-73.9406000,45.42981000,39.000000
-73.9406200,45.42977000,40.000000
-73.9406300,45.42975000,40.000000
-73.9406600,45.42973000,41.000000
-73.9406700,45.42973000,41.000000
-73.9406000,45.42974000,40.000000
-73.9405800,45.42974000,40.000000
-73.9405300,45.42974000,39.000000
-73.9404900,45.42973000,39.000000
-73.9404700,45.42972000,38.000000
-73.9404400,45.42969000,38.000000
-73.9404300,45.42967000,38.000000
-73.9404100,45.42964000,38.000000
-73.9403700,45.42961000,37.000000</coordinates>
        </LineString>
        <LineString>
          <extrude>true</extrude>
          <tessellate>true</tessellate>
          <coordinates>-73.9395900,45.43015000,35.000000
-73.9396100,45.43010000,35.000000
-73.9396100,45.43007000,35.000000
-73.9396000,45.43000000,35.000000
-73.9395900,45.42992000,36.000000
-73.9395800,45.42986000,36.000000
-73.9395800,45.42980000,36.000000
-73.9395900,45.42976000,36.000000
-73.9395800,45.42973000,36.000000
-73.9395600,45.42967000,36.000000
-73.9395400,45.42963000,36.000000
-73.9394500,45.42953000,36.000000
-73.9392800,45.42938000,37.000000
-73.9391900,45.42930000,37.000000
-73.9391500,45.42927000,36.000000
-73.9391000,45.42923000,36.000000
-73.9389900,45.42917000,36.000000
-73.9389000,45.42912000,35.000000
-73.9388000,45.42908000,35.000000
-73.9387500,45.42906000,35.000000
-73.9387000,45.42904000,35.000000
-73.9386700,45.42904000,35.000000
-73.9386200,45.42901000,35.000000
-73.9385100,45.42895000,35.000000
-73.9384100,45.42891000,35.000000
-73.9383900,45.42890000,35.000000
-73.9383700,45.42890000,35.000000
-73.9383400,45.42890000,35.000000
-73.9383000,45.42890000,35.000000
-73.9382500,45.42892000,35.000000
-73.9382200,45.42893000,35.000000
-73.9382500,45.42891000,35.000000</coordinates>
        </LineString>
        <LineString>
          <extrude>true</extrude>
          <tessellate>true</tessellate>
          <coordinates>-73.9370500,45.43008000,39.000000
-73.9376000,45.42988000,39.000000</coordinates>
        </LineString>
        <LineString>
          <extrude>true</extrude>
          <tessellate>true</tessellate>
          <coordinates>-73.9378400,45.42931000,37.000000
-73.9373300,45.42950000,38.000000</coordinates>
        </LineString>
        <LineString>
          <extrude>true</extrude>
          <tessellate>true</tessellate>
          <coordinates>-73.9364900,45.42934000,36.000000
-73.9371100,45.42913000,37.000000</coordinates>
        </LineString>
        <LineString>
          <extrude>true</extrude>
          <tessellate>true</tessellate>
          <coordinates>-73.9374100,45.42845000,34.000000
-73.9367900,45.42863000,36.000000</coordinates>
        </LineString>
        <LineString>
          <extrude>true</extrude>
          <tessellate>true</tessellate>
          <coordinates>-73.9378200,45.43130000,38.000000
-73.9384700,45.43114000,35.000000</coordinates>
        </LineString>
        <LineString>
          <extrude>true</extrude>
          <tessellate>true</tessellate>
          <coordinates>-73.9393600,45.43139000,34.000000
-73.9387000,45.43156000,35.000000</coordinates>
        </LineString>
        <LineString>
          <extrude>true</extrude>
          <tessellate>true</tessellate>
          <coordinates>-73.9383700,45.43213000,34.000000
-73.9389600,45.43195000,35.000000</coordinates>
        </LineString>
        <LineString>
          <extrude>true</extrude>
          <tessellate>true</tessellate>
          <coordinates>-73.9392200,45.43239000,36.000000
-73.9398300,45.43218000,36.000000</coordinates>
        </LineString>
        <LineString>
          <extrude>true</extrude>
          <tessellate>true</tessellate>
          <coordinates>-73.9395800,45.43073000,33.000000
-73.9394600,45.43031000,34.000000</coordinates>
        </LineString>
        <LineString>
          <extrude>true</extrude>
          <tessellate>true</tessellate>
          <coordinates>-73.9396700,45.42984000,36.000000
-73.9400200,45.43018000,34.000000</coordinates>
        </LineString>
        <LineString>
          <extrude>true</extrude>
          <tessellate>true</tessellate>
          <coordinates>-73.9405300,45.42991000,37.000000
-73.9408900,45.43023000,37.000000</coordinates>
        </LineString>
        <LineString>
          <extrude>true</extrude>
          <tessellate>true</tessellate>
          <coordinates>-73.9398100,45.42979000,35.000000
-73.9403700,45.42961000,37.000000</coordinates>
        </LineString>
        <LineString>
          <extrude>true</extrude>
          <tessellate>true</tessellate>
          <coordinates>-73.9382100,45.42894000,35.000000
-73.9382900,45.42846000,35.000000</coordinates>
        </LineString>
        <LineString>
          <extrude>true</extrude>
          <tessellate>true</tessellate>
          <coordinates>-73.9384000,45.42943000,35.000000
-73.9387700,45.42907000,35.000000</coordinates>
        </LineString>
        <LineString>
          <extrude>true</extrude>
          <tessellate>true</tessellate>
          <coordinates>-73.9396700,45.42905000,38.000000
-73.9392100,45.42932000,37.000000</coordinates>
        </LineString>
        <LineString>
          <extrude>true</extrude>
          <tessellate>true</tessellate>
          <coordinates>-73.9390200,45.42987000,36.000000
-73.9395600,45.42966000,36.000000</coordinates>
        </LineString>
      </MultiGeometry>
    </Placemark>
  </Document>
</kml>

