<?xml version="1.0" encoding="UTF-8"?>
<kml xmlns="http://www.opengis.net/kml/2.2" xmlns:xsi="http://www.w3.org/2001/XMLSchema-instance" xsi:schemaLocation="http://www.opengis.net/kml/2.2 http://schemas.opengis.net/kml/2.2.0/ogckml22.xsd">
  <Document>
    <name>Technoparc</name>
    <description><![CDATA[Generated by AllTrails https://www.alltrails.com/]]></description>
    <Style id="gpsiesStyle">
      <IconStyle>
        <scale>0.5</scale>
        <Icon>
          <href>https://www.gpsies.com/images/milestone.png</href>
        </Icon>
      </IconStyle>
      <LineStyle>
        <colorMode>random</colorMode>
        <width>5</width>
      </LineStyle>
    </Style>
    <Style id="flag_n">
      <IconStyle>
        <scale>0.8</scale>
        <Icon>
          <href>https://www.gpsies.com/images/flag.png</href>
        </Icon>
      </IconStyle>
      <LabelStyle>
        <scale>0</scale>
      </LabelStyle>
      <BalloonStyle>
        <text>$[description]</text>
      </BalloonStyle>
    </Style>
    <Style id="flag_h">
      <IconStyle>
        <scale>0.8</scale>
        <Icon>
          <href>https://www.gpsies.com/images/flag.png</href>
        </Icon>
      </IconStyle>
      <LabelStyle>
        <scale>1</scale>
      </LabelStyle>
      <BalloonStyle>
        <text>$[description]</text>
      </BalloonStyle>
    </Style>
    <StyleMap id="flag">
      <Pair>
        <key>normal</key>
        <styleUrl>#flag_n</styleUrl>
      </Pair>
      <Pair>
        <key>highlight</key>
        <styleUrl>#flag_h</styleUrl>
      </Pair>
    </StyleMap>
    <Placemark>
      <name>Technoparc</name>
      <visibility>1</visibility>
      <open>1</open>
      <Snippet maxLines="0" />
      <description><![CDATA[Generated by AllTrails https://www.alltrails.com/]]></description>
      <styleUrl>#gpsiesStyle</styleUrl>
      <MultiGeometry>
        <LineString>
          <extrude>true</extrude>
          <tessellate>true</tessellate>
          <coordinates>-73.7614400,45.47231000,30.000000
-73.7614800,45.47231000,30.000000
-73.7615000,45.47243000,30.000000
-73.7612600,45.47284000,31.000000
-73.7610400,45.47308000,31.000000
-73.7608300,45.47319000,31.000000
-73.7604400,45.47325000,32.000000
-73.7600500,45.47348000,34.000000
-73.7599100,45.47357000,35.000000</coordinates>
        </LineString>
        <LineString>
          <extrude>true</extrude>
          <tessellate>true</tessellate>
          <coordinates>-73.7643400,45.47077000,30.000000
-73.7638800,45.47027000,29.000000
-73.7634200,45.46976000,30.000000
-73.7629600,45.46926000,30.000000</coordinates>
        </LineString>
        <LineString>
          <extrude>true</extrude>
          <tessellate>true</tessellate>
          <coordinates>-73.7667000,45.47614000,30.000000
-73.7667000,45.47615000,30.000000
-73.7671500,45.47578000,32.000000
-73.7672700,45.47554000,32.000000
-73.7672500,45.47541000,31.000000
-73.7671300,45.47529000,30.000000
-73.7663000,45.47479000,29.000000</coordinates>
        </LineString>
        <LineString>
          <extrude>true</extrude>
          <tessellate>true</tessellate>
          <coordinates>-73.7595500,45.47558000,34.000000
-73.7595400,45.47558000,34.000000
-73.7595700,45.47565000,34.000000
-73.7596900,45.47563000,34.000000
-73.7609400,45.47641000,32.000000
-73.7614400,45.47674000,30.000000</coordinates>
        </LineString>
        <LineString>
          <extrude>true</extrude>
          <tessellate>true</tessellate>
          <coordinates>-73.7629700,45.46927000,30.000000
-73.7624100,45.46956000,30.000000</coordinates>
        </LineString>
        <LineString>
          <extrude>true</extrude>
          <tessellate>true</tessellate>
          <coordinates>-73.7638800,45.46936000,32.000000
-73.7633200,45.46962000,30.000000</coordinates>
        </LineString>
        <LineString>
          <extrude>true</extrude>
          <tessellate>true</tessellate>
          <coordinates>-73.7631700,45.47028000,28.000000
-73.7636500,45.47002000,29.000000</coordinates>
        </LineString>
        <LineString>
          <extrude>true</extrude>
          <tessellate>true</tessellate>
          <coordinates>-73.7645100,45.47019000,34.000000
-73.7640100,45.47040000,29.000000</coordinates>
        </LineString>
        <LineString>
          <extrude>true</extrude>
          <tessellate>true</tessellate>
          <coordinates>-73.7667000,45.47503000,30.000000
-73.7662100,45.47532000,29.000000</coordinates>
        </LineString>
        <LineString>
          <extrude>true</extrude>
          <tessellate>true</tessellate>
          <coordinates>-73.7677500,45.47510000,34.000000
-73.7672000,45.47534000,31.000000</coordinates>
        </LineString>
        <LineString>
          <extrude>true</extrude>
          <tessellate>true</tessellate>
          <coordinates>-73.7666100,45.47555000,29.000000
-73.7671700,45.47575000,32.000000</coordinates>
        </LineString>
        <LineString>
          <extrude>true</extrude>
          <tessellate>true</tessellate>
          <coordinates>-73.7672300,45.47646000,33.000000
-73.7666900,45.47615000,30.000000</coordinates>
        </LineString>
        <LineString>
          <extrude>true</extrude>
          <tessellate>true</tessellate>
          <coordinates>-73.7614200,45.47673000,30.000000
-73.7609800,45.47701000,30.000000</coordinates>
        </LineString>
        <LineString>
          <extrude>true</extrude>
          <tessellate>true</tessellate>
          <coordinates>-73.7613700,45.47612000,34.000000
-73.7609300,45.47641000,32.000000</coordinates>
        </LineString>
        <LineString>
          <extrude>true</extrude>
          <tessellate>true</tessellate>
          <coordinates>-73.7600700,45.47648000,33.000000
-73.7604700,45.47610000,35.000000</coordinates>
        </LineString>
        <LineString>
          <extrude>true</extrude>
          <tessellate>true</tessellate>
          <coordinates>-73.7603800,45.47548000,38.000000
-73.7599800,45.47580000,35.000000</coordinates>
        </LineString>
        <LineString>
          <extrude>true</extrude>
          <tessellate>true</tessellate>
          <coordinates>-73.7599200,45.47361000,35.000000
-73.7603200,45.47394000,34.000000</coordinates>
        </LineString>
        <LineString>
          <extrude>true</extrude>
          <tessellate>true</tessellate>
          <coordinates>-73.7603000,45.47333000,33.000000
-73.7598800,45.47300000,32.000000</coordinates>
        </LineString>
        <LineString>
          <extrude>true</extrude>
          <tessellate>true</tessellate>
          <coordinates>-73.7612100,45.47357000,29.000000
-73.7608500,45.47318000,31.000000</coordinates>
        </LineString>
        <LineString>
          <extrude>true</extrude>
          <tessellate>true</tessellate>
          <coordinates>-73.7607500,45.47260000,31.000000
-73.7612700,45.47282000,31.000000</coordinates>
        </LineString>
      </MultiGeometry>
    </Placemark>
  </Document>
</kml>

